NUSAT-50 (NANCY ROMAN)  
1 60493U 24149AB  26068.80227738  .00012094  00000+0  42252-3 0  9994
2 60493  97.3817 150.7693 0002523 238.0469 122.0527 15.29713355 86930
STARLINK-35501          
1 66436U 25259Q   26068.55099608  .00025023  00000+0  91588-3 0  9997
2 66436  43.0011 274.8197 0004077 295.3418  64.7011 15.27569906 19474
