[{"OBJECT_NAME":"NUSAT-50 (NANCY ROMAN)","OBJECT_ID":"2024-149AB","EPOCH":"2026-03-09T19:15:16.765632","MEAN_MOTION":15.29713355,"ECCENTRICITY":0.00025229,"INCLINATION":97.3817,"RA_OF_ASC_NODE":150.7693,"ARG_OF_PERICENTER":238.0469,"MEAN_ANOMALY":122.0527,"EPHEMERIS_TYPE":0,"CLASSIFICATION_TYPE":"U","NORAD_CAT_ID":60493,"ELEMENT_SET_NO":999,"REV_AT_EPOCH":8693,"BSTAR":0.0004225155,"MEAN_MOTION_DOT":0.00012094,"MEAN_MOTION_DDOT":0},{"OBJECT_NAME":"STARLINK-35501","OBJECT_ID":"2025-259Q","EPOCH":"2026-03-09T13:13:26.061312","MEAN_MOTION":15.27569906,"ECCENTRICITY":0.00040777,"INCLINATION":43.0011,"RA_OF_ASC_NODE":274.8197,"ARG_OF_PERICENTER":295.3418,"MEAN_ANOMALY":64.7011,"EPHEMERIS_TYPE":0,"CLASSIFICATION_TYPE":"U","NORAD_CAT_ID":66436,"ELEMENT_SET_NO":999,"REV_AT_EPOCH":1947,"BSTAR":0.00091587863,"MEAN_MOTION_DOT":0.00025023,"MEAN_MOTION_DDOT":0}]
